[{"CCSDS_OMM_VERS":"3.0","COMMENT":"GENERATED VIA SPACE-TRACK.ORG API","CREATION_DATE":"2026-05-30T21:02:43","ORIGINATOR":"18 SPCS","OBJECT_NAME":"GALILEO 16 (26C)","OBJECT_ID":"2016-069B","CENTER_NAME":"EARTH","REF_FRAME":"TEME","TIME_SYSTEM":"UTC","MEAN_ELEMENT_THEORY":"SGP4","EPOCH":"2026-05-30T00:01:47.416800","MEAN_MOTION":"1.70474017","ECCENTRICITY":"0.00046960","INCLINATION":"55.4858","RA_OF_ASC_NODE":"101.5843","ARG_OF_PERICENTER":"351.3160","MEAN_ANOMALY":"8.6186","EPHEMERIS_TYPE":"0","CLASSIFICATION_TYPE":"U","NORAD_CAT_ID":"41860","ELEMENT_SET_NO":"999","REV_AT_EPOCH":"5934","BSTAR":"0.00000000000000","MEAN_MOTION_DOT":"-0.00000008","MEAN_MOTION_DDOT":"0.0000000000000","SEMIMAJOR_AXIS":"29600.318","PERIOD":"844.704","APOAPSIS":"23236.083","PERIAPSIS":"23208.283","OBJECT_TYPE":"PAYLOAD","RCS_SIZE":"LARGE","COUNTRY_CODE":"ESA","LAUNCH_DATE":"2016-11-17","SITE":"FRGUI","DECAY_DATE":null,"FILE":"5223167","GP_ID":"326095217","TLE_LINE0":"0 GALILEO 16 (26C)","TLE_LINE1":"1 41860U 16069B   26150.00124325 -.00000008  00000-0  00000-0 0  9991","TLE_LINE2":"2 41860  55.4858 101.5843 0004696 351.3160   8.6186  1.70474017 59343"},{"CCSDS_OMM_VERS":"3.0","COMMENT":"GENERATED VIA SPACE-TRACK.ORG API","CREATION_DATE":"2026-05-31T06:46:43","ORIGINATOR":"18 SPCS","OBJECT_NAME":"GALILEO 16 (26C)","OBJECT_ID":"2016-069B","CENTER_NAME":"EARTH","REF_FRAME":"TEME","TIME_SYSTEM":"UTC","MEAN_ELEMENT_THEORY":"SGP4","EPOCH":"2026-05-30T14:06:28.302912","MEAN_MOTION":"1.70474033","ECCENTRICITY":"0.00047070","INCLINATION":"55.4861","RA_OF_ASC_NODE":"101.5681","ARG_OF_PERICENTER":"351.5159","MEAN_ANOMALY":"8.4188","EPHEMERIS_TYPE":"0","CLASSIFICATION_TYPE":"U","NORAD_CAT_ID":"41860","ELEMENT_SET_NO":"999","REV_AT_EPOCH":"5935","BSTAR":"0.00000000000000","MEAN_MOTION_DOT":"-0.00000007","MEAN_MOTION_DDOT":"0.0000000000000","SEMIMAJOR_AXIS":"29600.316","PERIOD":"844.703","APOAPSIS":"23236.114","PERIAPSIS":"23208.248","OBJECT_TYPE":"PAYLOAD","RCS_SIZE":"LARGE","COUNTRY_CODE":"ESA","LAUNCH_DATE":"2016-11-17","SITE":"FRGUI","DECAY_DATE":null,"FILE":"5224138","GP_ID":"326243831","TLE_LINE0":"0 GALILEO 16 (26C)","TLE_LINE1":"1 41860U 16069B   26150.58782758 -.00000007  00000-0  00000+0 0  9992","TLE_LINE2":"2 41860  55.4861 101.5681 0004707 351.5159   8.4188  1.70474033 59359"},{"CCSDS_OMM_VERS":"3.0","COMMENT":"GENERATED VIA SPACE-TRACK.ORG API","CREATION_DATE":"2026-05-31T06:06:41","ORIGINATOR":"18 SPCS","OBJECT_NAME":"GALILEO 16 (26C)","OBJECT_ID":"2016-069B","CENTER_NAME":"EARTH","REF_FRAME":"TEME","TIME_SYSTEM":"UTC","MEAN_ELEMENT_THEORY":"SGP4","EPOCH":"2026-05-30T14:06:28.303776","MEAN_MOTION":"1.70474033","ECCENTRICITY":"0.00047067","INCLINATION":"55.4861","RA_OF_ASC_NODE":"101.5681","ARG_OF_PERICENTER":"351.5159","MEAN_ANOMALY":"8.4188","EPHEMERIS_TYPE":"0","CLASSIFICATION_TYPE":"U","NORAD_CAT_ID":"41860","ELEMENT_SET_NO":"999","REV_AT_EPOCH":"5935","BSTAR":"0.00000000000000","MEAN_MOTION_DOT":"-0.00000007","MEAN_MOTION_DDOT":"0.0000000000000","SEMIMAJOR_AXIS":"29600.316","PERIOD":"844.703","APOAPSIS":"23236.113","PERIAPSIS":"23208.249","OBJECT_TYPE":"PAYLOAD","RCS_SIZE":"LARGE","COUNTRY_CODE":"ESA","LAUNCH_DATE":"2016-11-17","SITE":"FRGUI","DECAY_DATE":null,"FILE":"5223946","GP_ID":"326203909","TLE_LINE0":"0 GALILEO 16 (26C)","TLE_LINE1":"1 41860U 16069B   26150.58782759 -.00000007  00000-0  00000-0 0  9994","TLE_LINE2":"2 41860  55.4861 101.5681 0004707 351.5159   8.4188  1.70474033 59359"},{"CCSDS_OMM_VERS":"3.0","COMMENT":"GENERATED VIA SPACE-TRACK.ORG API","CREATION_DATE":"2026-05-31T16:16:51","ORIGINATOR":"18 SPCS","OBJECT_NAME":"GALILEO 16 (26C)","OBJECT_ID":"2016-069B","CENTER_NAME":"EARTH","REF_FRAME":"TEME","TIME_SYSTEM":"UTC","MEAN_ELEMENT_THEORY":"SGP4","EPOCH":"2026-05-31T04:11:09.312576","MEAN_MOTION":"1.70474031","ECCENTRICITY":"0.00047160","INCLINATION":"55.4865","RA_OF_ASC_NODE":"101.5519","ARG_OF_PERICENTER":"351.6441","MEAN_ANOMALY":"8.2911","EPHEMERIS_TYPE":"0","CLASSIFICATION_TYPE":"U","NORAD_CAT_ID":"41860","ELEMENT_SET_NO":"999","REV_AT_EPOCH":"5936","BSTAR":"0.00000000000000","MEAN_MOTION_DOT":"-0.00000006","MEAN_MOTION_DDOT":"0.0000000000000","SEMIMAJOR_AXIS":"29600.316","PERIOD":"844.703","APOAPSIS":"23236.141","PERIAPSIS":"23208.222","OBJECT_TYPE":"PAYLOAD","RCS_SIZE":"LARGE","COUNTRY_CODE":"ESA","LAUNCH_DATE":"2016-11-17","SITE":"FRGUI","DECAY_DATE":null,"FILE":"5225143","GP_ID":"326319542","TLE_LINE0":"0 GALILEO 16 (26C)","TLE_LINE1":"1 41860U 16069B   26151.17441334 -.00000006  00000-0  00000+0 0  9999","TLE_LINE2":"2 41860  55.4865 101.5519 0004716 351.6441   8.2911  1.70474031 59369"},{"CCSDS_OMM_VERS":"3.0","COMMENT":"GENERATED VIA SPACE-TRACK.ORG API","CREATION_DATE":"2026-06-01T10:22:25","ORIGINATOR":"18 SPCS","OBJECT_NAME":"GALILEO 16 (26C)","OBJECT_ID":"2016-069B","CENTER_NAME":"EARTH","REF_FRAME":"TEME","TIME_SYSTEM":"UTC","MEAN_ELEMENT_THEORY":"SGP4","EPOCH":"2026-05-31T04:11:09.313440","MEAN_MOTION":"1.70474031","ECCENTRICITY":"0.00047165","INCLINATION":"55.4865","RA_OF_ASC_NODE":"101.5519","ARG_OF_PERICENTER":"351.6441","MEAN_ANOMALY":"8.2911","EPHEMERIS_TYPE":"0","CLASSIFICATION_TYPE":"U","NORAD_CAT_ID":"41860","ELEMENT_SET_NO":"999","REV_AT_EPOCH":"5936","BSTAR":"0.00000000000000","MEAN_MOTION_DOT":"-0.00000006","MEAN_MOTION_DDOT":"0.0000000000000","SEMIMAJOR_AXIS":"29600.317","PERIOD":"844.703","APOAPSIS":"23236.142","PERIAPSIS":"23208.221","OBJECT_TYPE":"PAYLOAD","RCS_SIZE":"LARGE","COUNTRY_CODE":"ESA","LAUNCH_DATE":"2016-11-17","SITE":"FRGUI","DECAY_DATE":null,"FILE":"5227124","GP_ID":"326539816","TLE_LINE0":"0 GALILEO 16 (26C)","TLE_LINE1":"1 41860U 16069B   26151.17441335 -.00000006  00000-0  00000-0 0  9991","TLE_LINE2":"2 41860  55.4865 101.5519 0004716 351.6441   8.2911  1.70474031 59369"},{"CCSDS_OMM_VERS":"3.0","COMMENT":"GENERATED VIA SPACE-TRACK.ORG API","CREATION_DATE":"2026-06-03T21:59:02","ORIGINATOR":"18 SPCS","OBJECT_NAME":"GALILEO 16 (26C)","OBJECT_ID":"2016-069B","CENTER_NAME":"EARTH","REF_FRAME":"TEME","TIME_SYSTEM":"UTC","MEAN_ELEMENT_THEORY":"SGP4","EPOCH":"2026-06-03T02:34:35.573088","MEAN_MOTION":"1.70474020","ECCENTRICITY":"0.00046934","INCLINATION":"55.4882","RA_OF_ASC_NODE":"101.4709","ARG_OF_PERICENTER":"352.8898","MEAN_ANOMALY":"7.0579","EPHEMERIS_TYPE":"0","CLASSIFICATION_TYPE":"U","NORAD_CAT_ID":"41860","ELEMENT_SET_NO":"999","REV_AT_EPOCH":"5941","BSTAR":"0.00000000000000","MEAN_MOTION_DOT":"0.00000006","MEAN_MOTION_DDOT":"0.0000000000000","SEMIMAJOR_AXIS":"29600.318","PERIOD":"844.703","APOAPSIS":"23236.075","PERIAPSIS":"23208.290","OBJECT_TYPE":"PAYLOAD","RCS_SIZE":"LARGE","COUNTRY_CODE":"ESA","LAUNCH_DATE":"2016-11-17","SITE":"FRGUI","DECAY_DATE":null,"FILE":"5228922","GP_ID":"326927105","TLE_LINE0":"0 GALILEO 16 (26C)","TLE_LINE1":"1 41860U 16069B   26154.10735617  .00000006  00000-0  00000-0 0  9995","TLE_LINE2":"2 41860  55.4882 101.4709 0004693 352.8898   7.0579  1.70474020 59412"},{"CCSDS_OMM_VERS":"3.0","COMMENT":"GENERATED VIA SPACE-TRACK.ORG API","CREATION_DATE":"2026-06-03T15:47:14","ORIGINATOR":"18 SPCS","OBJECT_NAME":"GALILEO 16 (26C)","OBJECT_ID":"2016-069B","CENTER_NAME":"EARTH","REF_FRAME":"TEME","TIME_SYSTEM":"UTC","MEAN_ELEMENT_THEORY":"SGP4","EPOCH":"2026-06-03T02:34:35.573088","MEAN_MOTION":"1.70474020","ECCENTRICITY":"0.00046930","INCLINATION":"55.4882","RA_OF_ASC_NODE":"101.4709","ARG_OF_PERICENTER":"352.8898","MEAN_ANOMALY":"7.0579","EPHEMERIS_TYPE":"0","CLASSIFICATION_TYPE":"U","NORAD_CAT_ID":"41860","ELEMENT_SET_NO":"999","REV_AT_EPOCH":"5941","BSTAR":"0.00000000000000","MEAN_MOTION_DOT":"0.00000006","MEAN_MOTION_DDOT":"0.0000000000000","SEMIMAJOR_AXIS":"29600.318","PERIOD":"844.703","APOAPSIS":"23236.074","PERIAPSIS":"23208.291","OBJECT_TYPE":"PAYLOAD","RCS_SIZE":"LARGE","COUNTRY_CODE":"ESA","LAUNCH_DATE":"2016-11-17","SITE":"FRGUI","DECAY_DATE":null,"FILE":"5228448","GP_ID":"326872459","TLE_LINE0":"0 GALILEO 16 (26C)","TLE_LINE1":"1 41860U 16069B   26154.10735617  .00000006  00000-0  00000+0 0  9994","TLE_LINE2":"2 41860  55.4882 101.4709 0004693 352.8898   7.0579  1.70474020 59412"},{"CCSDS_OMM_VERS":"3.0","COMMENT":"GENERATED VIA SPACE-TRACK.ORG API","CREATION_DATE":"2026-06-06T17:50:36","ORIGINATOR":"18 SPCS","OBJECT_NAME":"GALILEO 16 (26C)","OBJECT_ID":"2016-069B","CENTER_NAME":"EARTH","REF_FRAME":"TEME","TIME_SYSTEM":"UTC","MEAN_ELEMENT_THEORY":"SGP4","EPOCH":"2026-06-06T00:58:02.680320","MEAN_MOTION":"1.70473908","ECCENTRICITY":"0.00046811","INCLINATION":"55.4899","RA_OF_ASC_NODE":"101.3899","ARG_OF_PERICENTER":"354.1097","MEAN_ANOMALY":"5.8552","EPHEMERIS_TYPE":"0","CLASSIFICATION_TYPE":"U","NORAD_CAT_ID":"41860","ELEMENT_SET_NO":"999","REV_AT_EPOCH":"5946","BSTAR":"0.00000000000000","MEAN_MOTION_DOT":"0.00000021","MEAN_MOTION_DDOT":"0.0000000000000","SEMIMAJOR_AXIS":"29600.331","PERIOD":"844.704","APOAPSIS":"23236.052","PERIAPSIS":"23208.339","OBJECT_TYPE":"PAYLOAD","RCS_SIZE":"LARGE","COUNTRY_CODE":"ESA","LAUNCH_DATE":"2016-11-17","SITE":"FRGUI","DECAY_DATE":null,"FILE":"5233480","GP_ID":"327588628","TLE_LINE0":"0 GALILEO 16 (26C)","TLE_LINE1":"1 41860U 16069B   26157.04030880  .00000021  00000-0  00000-0 0  9998","TLE_LINE2":"2 41860  55.4899 101.3899 0004681 354.1097   5.8552  1.70473908 59468"}]